H-2A R/B                
1 28932U 06002B   26068.93910813  .00011556  00000+0  57793-3 0  9999
2 28932  98.2413 215.9838 0051895 240.1322 119.4746 15.16426804 94474
RESURS-DK 1             
1 29228U 06021A   26068.86609026  .00004119  00000+0  24045-3 0  9993
2 29228  69.9317 236.5664 0001872 163.0233 197.0996 15.12746011 87552
CZ-4B R/B               
1 29507U 06046C   26069.13693909  .00006097  00000+0  30893-3 0  9999
2 29507  97.5597 114.0449 0031696 265.6570  94.1041 15.16910437 60110
CZ-2C R/B               
1 31114U 07010B   26069.28949326  .00000161  00000+0  93211-4 0  9991
2 31114  98.3979 182.5381 0057940 292.8235  66.6829 14.20246402979806
COSMO-SKYMED 1          
1 31598U 07023A   26069.26623549  .00004537  00000+0  40417-3 0  9995
2 31598  97.8874 260.3024 0001308  99.9366 260.2003 14.96540470 14998
COSMOS 2428             
1 31792U 07029A   26069.31346674  .00000065  00000+0  60689-4 0  9990
2 31792  70.9433 202.0334 0009123 276.3310  83.6771 14.12946323964186
SL-16 R/B               
1 31793U 07029B   26069.26442367  .00000065  00000+0  58257-4 0  9999
2 31793  70.9759 171.1769 0002300 276.1340 113.0837 14.14833446965452
KORONAS-FOTON           
1 33504U 09003A   26069.02364837  .00011166  00000+0  24919-3 0  9995
2 33504  82.4278 275.5305 0011331 148.5286 211.6641 15.43329428945794
CZ-2C R/B               
1 37731U 11030B   26069.30638884  .00002297  00000+0  29498-3 0  9993
2 37731  97.8549  26.5572 0052338 350.0579 172.0006 14.81226243790186
H-2A R/B                
1 38341U 12025E   26069.26396967  .00004990  00000+0  45206-3 0  9991
2 38341  98.4741  36.3564 0043309 312.5517  47.2049 14.95177080748304
SHIJIAN-16 (SJ-16)      
1 39358U 13057A   26069.29942566  .00004848  00000+0  47548-3 0  9994
2 39358  74.9731 183.9337 0015428 110.7752 249.5091 14.92354032671599
SL-4 R/B                
1 39679U 14021B   26069.14835710  .00018624  00000+0  40816-3 0  9996
2 39679  51.6079 335.0419 0097452 104.7108 256.4701 15.39198695656342
