CCSDS_OMM_VERS = 2.0
CREATION_DATE  = 
ORIGINATOR     = 

OBJECT_NAME    = H-2A R/B
OBJECT_ID      = 2006-002B
CENTER_NAME    = EARTH
REF_FRAME      = TEME
TIME_SYSTEM    = UTC
MEAN_ELEMENT_THEORY = SGP/SGP4

EPOCH          = 2026-03-09T22:32:18.942432
MEAN_MOTION    = 15.16426804
ECCENTRICITY   = .0051895
INCLINATION    = 98.2413
RA_OF_ASC_NODE = 215.9838
ARG_OF_PERICENTER = 240.1322
MEAN_ANOMALY   = 119.4746

EPHEMERIS_TYPE = 0
CLASSIFICATION_TYPE = U
NORAD_CAT_ID   = 28932
ELEMENT_SET_NO = 999
REV_AT_EPOCH   = 9447
BSTAR          = .57793E-3
MEAN_MOTION_DOT = .11556E-3
MEAN_MOTION_DDOT = 0

CCSDS_OMM_VERS = 2.0
CREATION_DATE  = 
ORIGINATOR     = 

OBJECT_NAME    = RESURS-DK 1
OBJECT_ID      = 2006-021A
CENTER_NAME    = EARTH
REF_FRAME      = TEME
TIME_SYSTEM    = UTC
MEAN_ELEMENT_THEORY = SGP/SGP4

EPOCH          = 2026-03-09T20:47:10.198464
MEAN_MOTION    = 15.12746011
ECCENTRICITY   = .00018726
INCLINATION    = 69.9317
RA_OF_ASC_NODE = 236.5664
ARG_OF_PERICENTER = 163.0233
MEAN_ANOMALY   = 197.0996

EPHEMERIS_TYPE = 0
CLASSIFICATION_TYPE = U
NORAD_CAT_ID   = 29228
ELEMENT_SET_NO = 999
REV_AT_EPOCH   = 8755
BSTAR          = .24045463E-3
MEAN_MOTION_DOT = .4119E-4
MEAN_MOTION_DDOT = 0

CCSDS_OMM_VERS = 2.0
CREATION_DATE  = 
ORIGINATOR     = 

OBJECT_NAME    = CZ-4B R/B
OBJECT_ID      = 2006-046C
CENTER_NAME    = EARTH
REF_FRAME      = TEME
TIME_SYSTEM    = UTC
MEAN_ELEMENT_THEORY = SGP/SGP4

EPOCH          = 2026-03-10T03:17:11.537376
MEAN_MOTION    = 15.16910437
ECCENTRICITY   = .00316965
INCLINATION    = 97.5597
RA_OF_ASC_NODE = 114.0449
ARG_OF_PERICENTER = 265.6570
MEAN_ANOMALY   = 94.1041

EPHEMERIS_TYPE = 0
CLASSIFICATION_TYPE = U
NORAD_CAT_ID   = 29507
ELEMENT_SET_NO = 999
REV_AT_EPOCH   = 6011
BSTAR          = .30893327E-3
MEAN_MOTION_DOT = .6097E-4
MEAN_MOTION_DDOT = 0

CCSDS_OMM_VERS = 2.0
CREATION_DATE  = 
ORIGINATOR     = 

OBJECT_NAME    = CZ-2C R/B
OBJECT_ID      = 2007-010B
CENTER_NAME    = EARTH
REF_FRAME      = TEME
TIME_SYSTEM    = UTC
MEAN_ELEMENT_THEORY = SGP/SGP4

EPOCH          = 2026-03-10T06:56:52.217664
MEAN_MOTION    = 14.20246402
ECCENTRICITY   = .00579404
INCLINATION    = 98.3979
RA_OF_ASC_NODE = 182.5381
ARG_OF_PERICENTER = 292.8235
MEAN_ANOMALY   = 66.6829

EPHEMERIS_TYPE = 0
CLASSIFICATION_TYPE = U
NORAD_CAT_ID   = 31114
ELEMENT_SET_NO = 999
REV_AT_EPOCH   = 97980
BSTAR          = .93211106E-4
MEAN_MOTION_DOT = .161E-5
MEAN_MOTION_DDOT = 0

CCSDS_OMM_VERS = 2.0
CREATION_DATE  = 
ORIGINATOR     = 

OBJECT_NAME    = COSMO-SKYMED 1
OBJECT_ID      = 2007-023A
CENTER_NAME    = EARTH
REF_FRAME      = TEME
TIME_SYSTEM    = UTC
MEAN_ELEMENT_THEORY = SGP/SGP4

EPOCH          = 2026-03-10T06:23:22.746336
MEAN_MOTION    = 14.96540470
ECCENTRICITY   = .00013089
INCLINATION    = 97.8874
RA_OF_ASC_NODE = 260.3024
ARG_OF_PERICENTER = 99.9366
MEAN_ANOMALY   = 260.2003

EPHEMERIS_TYPE = 0
CLASSIFICATION_TYPE = U
NORAD_CAT_ID   = 31598
ELEMENT_SET_NO = 999
REV_AT_EPOCH   = 1499
BSTAR          = .40416712E-3
MEAN_MOTION_DOT = .4537E-4
MEAN_MOTION_DDOT = 0

CCSDS_OMM_VERS = 2.0
CREATION_DATE  = 
ORIGINATOR     = 

OBJECT_NAME    = COSMOS 2428
OBJECT_ID      = 2007-029A
CENTER_NAME    = EARTH
REF_FRAME      = TEME
TIME_SYSTEM    = UTC
MEAN_ELEMENT_THEORY = SGP/SGP4

EPOCH          = 2026-03-10T07:31:23.526336
MEAN_MOTION    = 14.12946323
ECCENTRICITY   = .00091232
INCLINATION    = 70.9433
RA_OF_ASC_NODE = 202.0334
ARG_OF_PERICENTER = 276.3310
MEAN_ANOMALY   = 83.6771

EPHEMERIS_TYPE = 0
CLASSIFICATION_TYPE = U
NORAD_CAT_ID   = 31792
ELEMENT_SET_NO = 999
REV_AT_EPOCH   = 96418
BSTAR          = .60688755E-4
MEAN_MOTION_DOT = .65E-6
MEAN_MOTION_DDOT = 0

CCSDS_OMM_VERS = 2.0
CREATION_DATE  = 
ORIGINATOR     = 

OBJECT_NAME    = SL-16 R/B
OBJECT_ID      = 2007-029B
CENTER_NAME    = EARTH
REF_FRAME      = TEME
TIME_SYSTEM    = UTC
MEAN_ELEMENT_THEORY = SGP/SGP4

EPOCH          = 2026-03-10T06:20:46.205088
MEAN_MOTION    = 14.14833446
ECCENTRICITY   = .00023005
INCLINATION    = 70.9759
RA_OF_ASC_NODE = 171.1769
ARG_OF_PERICENTER = 276.1340
MEAN_ANOMALY   = 113.0837

EPHEMERIS_TYPE = 0
CLASSIFICATION_TYPE = U
NORAD_CAT_ID   = 31793
ELEMENT_SET_NO = 999
REV_AT_EPOCH   = 96545
BSTAR          = .58256646E-4
MEAN_MOTION_DOT = .65E-6
MEAN_MOTION_DDOT = 0

CCSDS_OMM_VERS = 2.0
CREATION_DATE  = 
ORIGINATOR     = 

OBJECT_NAME    = KORONAS-FOTON
OBJECT_ID      = 2009-003A
CENTER_NAME    = EARTH
REF_FRAME      = TEME
TIME_SYSTEM    = UTC
MEAN_ELEMENT_THEORY = SGP/SGP4

EPOCH          = 2026-03-10T00:34:03.219168
MEAN_MOTION    = 15.43329428
ECCENTRICITY   = .00113317
INCLINATION    = 82.4278
RA_OF_ASC_NODE = 275.5305
ARG_OF_PERICENTER = 148.5286
MEAN_ANOMALY   = 211.6641

EPHEMERIS_TYPE = 0
CLASSIFICATION_TYPE = U
NORAD_CAT_ID   = 33504
ELEMENT_SET_NO = 999
REV_AT_EPOCH   = 94579
BSTAR          = .24919035E-3
MEAN_MOTION_DOT = .11166E-3
MEAN_MOTION_DDOT = 0

CCSDS_OMM_VERS = 2.0
CREATION_DATE  = 
ORIGINATOR     = 

OBJECT_NAME    = CZ-2C R/B
OBJECT_ID      = 2011-030B
CENTER_NAME    = EARTH
REF_FRAME      = TEME
TIME_SYSTEM    = UTC
MEAN_ELEMENT_THEORY = SGP/SGP4

EPOCH          = 2026-03-10T07:21:11.995776
MEAN_MOTION    = 14.81226243
ECCENTRICITY   = .00523382
INCLINATION    = 97.8549
RA_OF_ASC_NODE = 26.5572
ARG_OF_PERICENTER = 350.0579
MEAN_ANOMALY   = 172.0006

EPHEMERIS_TYPE = 0
CLASSIFICATION_TYPE = U
NORAD_CAT_ID   = 37731
ELEMENT_SET_NO = 999
REV_AT_EPOCH   = 79018
BSTAR          = .29498375E-3
MEAN_MOTION_DOT = .2297E-4
MEAN_MOTION_DDOT = 0

CCSDS_OMM_VERS = 2.0
CREATION_DATE  = 
ORIGINATOR     = 

OBJECT_NAME    = H-2A R/B
OBJECT_ID      = 2012-025E
CENTER_NAME    = EARTH
REF_FRAME      = TEME
TIME_SYSTEM    = UTC
MEAN_ELEMENT_THEORY = SGP/SGP4

EPOCH          = 2026-03-10T06:20:06.979488
MEAN_MOTION    = 14.95177080
ECCENTRICITY   = .00433098
INCLINATION    = 98.4741
RA_OF_ASC_NODE = 36.3564
ARG_OF_PERICENTER = 312.5517
MEAN_ANOMALY   = 47.2049

EPHEMERIS_TYPE = 0
CLASSIFICATION_TYPE = U
NORAD_CAT_ID   = 38341
ELEMENT_SET_NO = 999
REV_AT_EPOCH   = 74830
BSTAR          = .45205838E-3
MEAN_MOTION_DOT = .499E-4
MEAN_MOTION_DDOT = 0

CCSDS_OMM_VERS = 2.0
CREATION_DATE  = 
ORIGINATOR     = 

OBJECT_NAME    = SHIJIAN-16 (SJ-16)
OBJECT_ID      = 2013-057A
CENTER_NAME    = EARTH
REF_FRAME      = TEME
TIME_SYSTEM    = UTC
MEAN_ELEMENT_THEORY = SGP/SGP4

EPOCH          = 2026-03-10T07:11:10.377024
MEAN_MOTION    = 14.92354032
ECCENTRICITY   = .00154289
INCLINATION    = 74.9731
RA_OF_ASC_NODE = 183.9337
ARG_OF_PERICENTER = 110.7752
MEAN_ANOMALY   = 249.5091

EPHEMERIS_TYPE = 0
CLASSIFICATION_TYPE = U
NORAD_CAT_ID   = 39358
ELEMENT_SET_NO = 999
REV_AT_EPOCH   = 67159
BSTAR          = .47547608E-3
MEAN_MOTION_DOT = .4848E-4
MEAN_MOTION_DDOT = 0

CCSDS_OMM_VERS = 2.0
CREATION_DATE  = 
ORIGINATOR     = 

OBJECT_NAME    = SL-4 R/B
OBJECT_ID      = 2014-021B
CENTER_NAME    = EARTH
REF_FRAME      = TEME
TIME_SYSTEM    = UTC
MEAN_ELEMENT_THEORY = SGP/SGP4

EPOCH          = 2026-03-10T03:33:38.053440
MEAN_MOTION    = 15.39198695
ECCENTRICITY   = .00974529
INCLINATION    = 51.6079
RA_OF_ASC_NODE = 335.0419
ARG_OF_PERICENTER = 104.7108
MEAN_ANOMALY   = 256.4701

EPHEMERIS_TYPE = 0
CLASSIFICATION_TYPE = U
NORAD_CAT_ID   = 39679
ELEMENT_SET_NO = 999
REV_AT_EPOCH   = 65634
BSTAR          = .40815639E-3
MEAN_MOTION_DOT = .18624E-3
MEAN_MOTION_DDOT = 0

